[{"OBJECT_NAME":"STARLINK-30756","OBJECT_ID":"2023-162M","EPOCH":"2026-03-09T22:00:01.999584","MEAN_MOTION":15.24289135,"ECCENTRICITY":0.00012395,"INCLINATION":43.0001,"RA_OF_ASC_NODE":131.0506,"ARG_OF_PERICENTER":308.8263,"MEAN_ANOMALY":44.7614,"EPHEMERIS_TYPE":0,"CLASSIFICATION_TYPE":"U","NORAD_CAT_ID":58129,"ELEMENT_SET_NO":999,"REV_AT_EPOCH":572,"BSTAR":0.073732915,"MEAN_MOTION_DOT":0.02042507,"MEAN_MOTION_DDOT":0},{"OBJECT_NAME":"OTTER","OBJECT_ID":"2025-009Q","EPOCH":"2026-03-09T17:21:07.902432","MEAN_MOTION":15.27809545,"ECCENTRICITY":0.00035728,"INCLINATION":97.4065,"RA_OF_ASC_NODE":151.3812,"ARG_OF_PERICENTER":310.771,"MEAN_ANOMALY":49.3219,"EPHEMERIS_TYPE":0,"CLASSIFICATION_TYPE":"U","NORAD_CAT_ID":62623,"ELEMENT_SET_NO":999,"REV_AT_EPOCH":6372,"BSTAR":0.00045151206,"MEAN_MOTION_DOT":0.00012198,"MEAN_MOTION_DDOT":0}]
